IONOSFERA-M 4           
1 64877U 25155B   26194.88752000  .00000005  00000+0  21913-4 0  9996
2 64877  98.6038 156.0397 0001800 100.9887 259.1493 14.21493133 50190
MICROCARB               
1 64899U 25156A   26194.78415378  .00000260  00000+0  48328-4 0  9996
2 64899  98.0075 271.5062 0017526 175.2277 184.9101 14.72884158 51886
CO3D 3                  
1 64900U 25156B   26194.84585051  .00002487  00000+0  11803-3 0  9992
2 64900  97.4339 273.1556 0001792  93.8209 266.3230 15.20185668 53580
CO3D 4                  
1 64901U 25156C   26194.84601830  .00000706  00000+0  35732-4 0  9997
2 64901  97.4335 273.1556 0001580 155.6740 204.4569 15.20203183 53580
CO3D 2                  
1 64902U 25156D   26194.81267022  .00002307  00000+0  10966-3 0  9996
2 64902  97.4338 273.0215 0001252  87.6192 272.5187 15.20194985 53576
CO3D 1                  
1 64903U 25156E   26194.81282378  .00002453  00000+0  11644-3 0  9994
2 64903  97.4337 273.0218 0001276  99.6518 260.4861 15.20194788 53576
PRSC-S1                 
1 65055U 25164A   26194.91372350  .00002257  00000+0  16135-3 0  9995
2 65055  41.1296 137.2644 0006508 189.9382 170.1304 15.06628777 52464
SENTINEL-6B             
1 66514U 25264A   26194.86587691 -.00000049  00000+0  52061-4 0  9994
2 66514  66.0413  79.7678 0007867 268.7828  91.2286 12.80930106 30581
CAS500-3                
1 66655U 25274F   26194.77100350  .00000599  00000+0  70482-4 0  9990
2 66655  97.7437 122.2175 0006323  42.0337 318.1364 14.88381724 34100
CSG-3                   
1 67304U 26001A   26194.52815792  .00000135  00000+0  23485-4 0  9994
2 67304  97.8894  17.7492 0001518  93.3222 266.8165 14.82151371 28369
PRSC-E03                
1 68835U 26092A   26194.69715823  .00001343  00000+0  95726-4 0  9995
2 68835  38.0017 293.3420 0004801 241.9248 118.1028 15.06805087 11954
CAS500-2                
1 69013U 26100AK  26194.66928325  .00003642  00000+0  16776-3 0  9995
2 69013  97.3873  92.0228 0007871 298.6467  61.3977 15.20891192 10839
